{
  "version": 1,
  "fetchedAt": "2026-06-21T12:32:46.387Z",
  "source": "celestrak-gp",
  "counts": {
    "station": 24,
    "satellite": 520,
    "debris": 250
  },
  "objects": [
    {
      "id": "29709",
      "name": "LAPAN-TUBSAT",
      "noradId": 29709,
      "line1": "1 29709U 07001A   26172.22729225  .00000711  00000+0  88013-4 0  9996",
      "line2": "2 29709  98.1345 171.5427 0012277 166.0462 194.1094 14.85954535 51755",
      "category": "satellite"
    },
    {
      "id": "39084",
      "name": "LANDSAT 8",
      "noradId": 39084,
      "line1": "1 39084U 13008A   26171.45824818  .00000230  00000+0  61084-4 0  9990",
      "line2": "2 39084  98.2301 241.5547 0001358  93.7192 266.4162 14.57096364698370",
      "category": "satellite"
    },
    {
      "id": "40536",
      "name": "KOMPSAT-3A",
      "noradId": 40536,
      "line1": "1 40536U 15014A   26172.23400637  .00020451  00000+0  29424-3 0  9997",
      "line2": "2 40536  97.6889 163.8924 0056908 159.9178 200.4333 15.54157822622441",
      "category": "satellite"
    },
    {
      "id": "41167",
      "name": "KENT RIDGE 1",
      "noradId": 41167,
      "line1": "1 41167U 15077B   26171.56866066  .00003339  00000+0  10583-3 0  9996",
      "line2": "2 41167  14.9790 240.8421 0008246 286.2551  73.6864 15.23149174581613",
      "category": "satellite"
    },
    {
      "id": "41603",
      "name": "LAPAN-A3",
      "noradId": 41603,
      "line1": "1 41603U 16040E   26172.23783620  .00002603  00000+0  83573-4 0  9994",
      "line2": "2 41603  97.1492 168.2503 0010389  12.1031 348.0460 15.33126076555433",
      "category": "satellite"
    },
    {
      "id": "43783",
      "name": "KAZSTSAT",
      "noradId": 43783,
      "line1": "1 43783U 18099AB  26171.03293079  .00001425  00000+0  11946-3 0  9997",
      "line2": "2 43783  97.4272 202.8318 0008602  62.2449 297.9646 14.99874388411735",
      "category": "satellite"
    },
    {
      "id": "49260",
      "name": "LANDSAT 9",
      "noradId": 49260,
      "line1": "1 49260U 21088A   26171.42401958  .00000235  00000+0  62312-4 0  9997",
      "line2": "2 49260  98.2280 241.5622 0001329  85.1905 274.9445 14.57098947251475",
      "category": "satellite"
    },
    {
      "id": "59625",
      "name": "LEGION 1",
      "noradId": 59625,
      "line1": "1 59625U 24081A   26171.45980492  .00002623  00000+0  13730-3 0  9999",
      "line2": "2 59625  97.5015 249.2820 0009187   6.7145 353.4210 15.16685063118033",
      "category": "satellite"
    },
    {
      "id": "59626",
      "name": "LEGION 2",
      "noradId": 59626,
      "line1": "1 59626U 24081B   26171.48983050  .00002864  00000+0  14962-3 0  9991",
      "line2": "2 59626  97.5015 249.4091 0010476 331.4775  28.5884 15.16663670118044",
      "category": "satellite"
    },
    {
      "id": "60452",
      "name": "LEGION 3",
      "noradId": 60452,
      "line1": "1 60452U 24146A   26171.42555762  .00003536  00000+0  19408-3 0  9998",
      "line2": "2 60452  45.0028  13.1867 0008055 188.7532 171.3207 15.16059013102517",
      "category": "satellite"
    }
  ]
}